{
  "type": "FeatureCollection",
  "features": [
    {
      "type": "Feature",
      "properties": {
        "norad_id": 39773,
        "name": "EUTELSAT 3B",
        "group": "eutelsat",
        "lat": -0.007950426671197277,
        "lon": -179.17191278971666,
        "alt_km": 35776.049866935486,
        "timestamp": "2025-12-26T05:31:12.171276+00:00",
        "meta_object_name": "EUTELSAT 3B",
        "meta_object_id": "2014-030A",
        "meta_epoch": "2025-12-25T19:55:47.736768",
        "meta_mean_motion": 1.00270268,
        "meta_eccentricity": 0.00042727,
        "meta_inclination": 0.0603,
        "meta_ra_of_asc_node": 351.1895,
        "meta_arg_of_pericenter": 244.0323,
        "meta_mean_anomaly": 161.4098,
        "meta_ephemeris_type": 0,
        "meta_classification_type": "U",
        "meta_norad_cat_id": 39773,
        "meta_element_set_no": 999,
        "meta_rev_at_epoch": 4232,
        "meta_bstar": 0,
        "meta_mean_motion_dot": 4.1e-07,
        "meta_mean_motion_ddot": 0,
        "tle_line1": "1 39773U 14030A   25359.83041362  .00000041  00000+0  00000+0 0  9991",
        "tle_line2": "2 39773   0.0603 351.1895 0004272 244.0323 161.4098  1.00270268 42321"
      },
      "geometry": {
        "type": "Point",
        "coordinates": [
          -179.17191278971666,
          -0.007950426671197277
        ]
      }
    },
    {
      "type": "Feature",
      "properties": {
        "norad_id": 40425,
        "name": "EUTELSAT 115 WEST B",
        "group": "eutelsat",
        "lat": -0.020710566036027885,
        "lon": 62.86227562948181,
        "alt_km": 35785.796711293966,
        "timestamp": "2025-12-26T05:31:12.171287+00:00",
        "meta_object_name": "EUTELSAT 115 WEST B",
        "meta_object_id": "2015-010B",
        "meta_epoch": "2025-12-24T09:59:58.343136",
        "meta_mean_motion": 1.00271259,
        "meta_eccentricity": 1.435e-05,
        "meta_inclination": 0.0435,
        "meta_ra_of_asc_node": 188.915,
        "meta_arg_of_pericenter": 182.2118,
        "meta_mean_anomaly": 117.1483,
        "meta_ephemeris_type": 0,
        "meta_classification_type": "U",
        "meta_norad_cat_id": 40425,
        "meta_element_set_no": 999,
        "meta_rev_at_epoch": 3964,
        "meta_bstar": 0,
        "meta_mean_motion_dot": -4e-08,
        "meta_mean_motion_ddot": 0,
        "tle_line1": "1 40425U 15010B   25358.41664749 -.00000004  00000+0  00000+0 0  9999",
        "tle_line2": "2 40425   0.0435 188.9150 0000143 182.2118 117.1483  1.00271259 39646"
      },
      "geometry": {
        "type": "Point",
        "coordinates": [
          62.86227562948181,
          -0.020710566036027885
        ]
      }
    },
    {
      "type": "Feature",
      "properties": {
        "norad_id": 40875,
        "name": "EUTELSAT 8 WEST B",
        "group": "eutelsat",
        "lat": 0.028540353713658238,
        "lon": 169.72213688598896,
        "alt_km": 35790.83965864578,
        "timestamp": "2025-12-26T05:31:12.171299+00:00",
        "meta_object_name": "EUTELSAT 8 WEST B",
        "meta_object_id": "2015-039B",
        "meta_epoch": "2025-12-25T06:10:40.433088",
        "meta_mean_motion": 1.00271322,
        "meta_eccentricity": 0.000422,
        "meta_inclination": 0.0645,
        "meta_ra_of_asc_node": 9.1951,
        "meta_arg_of_pericenter": 265.5835,
        "meta_mean_anomaly": 263.9078,
        "meta_ephemeris_type": 0,
        "meta_classification_type": "U",
        "meta_norad_cat_id": 40875,
        "meta_element_set_no": 999,
        "meta_rev_at_epoch": 3791,
        "meta_bstar": 0,
        "meta_mean_motion_dot": -4.4e-07,
        "meta_mean_motion_ddot": 0,
        "tle_line1": "1 40875U 15039B   25359.25741242 -.00000044  00000+0  00000+0 0  9990",
        "tle_line2": "2 40875   0.0645   9.1951 0004220 265.5835 263.9078  1.00271322 37911"
      },
      "geometry": {
        "type": "Point",
        "coordinates": [
          169.72213688598896,
          0.028540353713658238
        ]
      }
    },
    {
      "type": "Feature",
      "properties": {
        "norad_id": 41310,
        "name": "EUTELSAT 9B",
        "group": "eutelsat",
        "lat": 0.020138283669324433,
        "lon": -173.28705524143945,
        "alt_km": 35786.00766545718,
        "timestamp": "2025-12-26T05:31:12.171311+00:00",
        "meta_object_name": "EUTELSAT 9B",
        "meta_object_id": "2016-005A",
        "meta_epoch": "2025-12-25T16:31:52.264704",
        "meta_mean_motion": 1.00269837,
        "meta_eccentricity": 0.00046711,
        "meta_inclination": 0.0258,
        "meta_ra_of_asc_node": 45.4208,
        "meta_arg_of_pericenter": 229.6362,
        "meta_mean_anomaly": 76.3538,
        "meta_ephemeris_type": 0,
        "meta_classification_type": "U",
        "meta_norad_cat_id": 41310,
        "meta_element_set_no": 999,
        "meta_rev_at_epoch": 3637,
        "meta_bstar": 0,
        "meta_mean_motion_dot": 8.3e-07,
        "meta_mean_motion_ddot": 0,
        "tle_line1": "1 41310U 16005A   25359.68879936  .00000083  00000+0  00000+0 0  9990",
        "tle_line2": "2 41310   0.0258  45.4208 0004671 229.6362  76.3538  1.00269837 36374"
      },
      "geometry": {
        "type": "Point",
        "coordinates": [
          -173.28705524143945,
          0.020138283669324433
        ]
      }
    },
    {
      "type": "Feature",
      "properties": {
        "norad_id": 41382,
        "name": "EUTELSAT 65 WEST A",
        "group": "eutelsat",
        "lat": 0.056188161945427445,
        "lon": 112.58511571224614,
        "alt_km": 35795.7739587867,
        "timestamp": "2025-12-26T05:31:12.171322+00:00",
        "meta_object_name": "EUTELSAT 65 WEST A",
        "meta_object_id": "2016-014A",
        "meta_epoch": "2025-12-25T21:18:58.027968",
        "meta_mean_motion": 1.00271466,
        "meta_eccentricity": 0.0002336,
        "meta_inclination": 0.048,
        "meta_ra_of_asc_node": 346.0355,
        "meta_arg_of_pericenter": 291.9689,
        "meta_mean_anomaly": 71.1992,
        "meta_ephemeris_type": 0,
        "meta_classification_type": "U",
        "meta_norad_cat_id": 41382,
        "meta_element_set_no": 999,
        "meta_rev_at_epoch": 3579,
        "meta_bstar": 0,
        "meta_mean_motion_dot": -2.55e-06,
        "meta_mean_motion_ddot": 0,
        "tle_line1": "1 41382U 16014A   25359.88817162 -.00000255  00000+0  00000+0 0  9996",
        "tle_line2": "2 41382   0.0480 346.0355 0002336 291.9689  71.1992  1.00271466 35796"
      },
      "geometry": {
        "type": "Point",
        "coordinates": [
          112.58511571224614,
          0.056188161945427445
        ]
      }
    },
    {
      "type": "Feature",
      "properties": {
        "norad_id": 41589,
        "name": "EUTELSAT 117 WEST B",
        "group": "eutelsat",
        "lat": -0.0037044529948859345,
        "lon": 60.80557606993743,
        "alt_km": 35785.934353056386,
        "timestamp": "2025-12-26T05:31:12.171333+00:00",
        "meta_object_name": "EUTELSAT 117 WEST B",
        "meta_object_id": "2016-038B",
        "meta_epoch": "2025-12-24T09:59:01.014144",
        "meta_mean_motion": 1.00277873,
        "meta_eccentricity": 6.384e-05,
        "meta_inclination": 0.0094,
        "meta_ra_of_asc_node": 154.0765,
        "meta_arg_of_pericenter": 139.5473,
        "meta_mean_anomaly": 192.3072,
        "meta_ephemeris_type": 0,
        "meta_classification_type": "U",
        "meta_norad_cat_id": 41589,
        "meta_element_set_no": 999,
        "meta_rev_at_epoch": 3491,
        "meta_bstar": 0,
        "meta_mean_motion_dot": 9e-08,
        "meta_mean_motion_ddot": 0,
        "tle_line1": "1 41589U 16038B   25358.41598396  .00000009  00000+0  00000+0 0  9990",
        "tle_line2": "2 41589   0.0094 154.0765 0000638 139.5473 192.3072  1.00277873 34915"
      },
      "geometry": {
        "type": "Point",
        "coordinates": [
          60.80557606993743,
          -0.0037044529948859345
        ]
      }
    },
    {
      "type": "Feature",
      "properties": {
        "norad_id": 42741,
        "name": "EUTELSAT 172B",
        "group": "eutelsat",
        "lat": -0.020771231279444018,
        "lon": -10.212688619352187,
        "alt_km": 35783.70633326587,
        "timestamp": "2025-12-26T05:31:12.171345+00:00",
        "meta_object_name": "EUTELSAT 172B",
        "meta_object_id": "2017-029B",
        "meta_epoch": "2025-12-25T20:43:50.636064",
        "meta_mean_motion": 1.00277797,
        "meta_eccentricity": 3.199e-05,
        "meta_inclination": 0.0359,
        "meta_ra_of_asc_node": 152.4382,
        "meta_arg_of_pericenter": 137.6622,
        "meta_mean_anomaly": 287.482,
        "meta_ephemeris_type": 0,
        "meta_classification_type": "U",
        "meta_norad_cat_id": 42741,
        "meta_element_set_no": 999,
        "meta_rev_at_epoch": 3199,
        "meta_bstar": 0,
        "meta_mean_motion_dot": 1.7e-07,
        "meta_mean_motion_ddot": 0,
        "tle_line1": "1 42741U 17029B   25359.86378051  .00000017  00000+0  00000+0 0  9995",
        "tle_line2": "2 42741   0.0359 152.4382 0000319 137.6622 287.4820  1.00277797 31995"
      },
      "geometry": {
        "type": "Point",
        "coordinates": [
          -10.212688619352187,
          -0.020771231279444018
        ]
      }
    }
  ]
}